TEVEL2-9                
1 63237U 25052AD  26068.70229538  .00018694  00000+0  67240-3 0  9992
2 63237  97.4057 324.3929 0007990 124.2475 235.9522 15.28633834 54816
STARLINK-35570          
1 66090U 25236E   26068.33105382  .00022963  00000+0  78500-3 0  9990
2 66090  53.1572 105.2583 0001274  88.6862 271.4284 15.30200309 22894
